S-NET B                 
1 43187U 18014H   26060.29883626  .00006920  00000+0  36883-3 0  9992
2 43187  97.5455 325.7871 0010189  36.5929 323.5997 15.15464884442415
S-NET A                 
1 43188U 18014J   26060.28881650  .00007579  00000+0  40317-3 0  9995
2 43188  97.5464 325.9664 0010122  36.8876 323.3051 15.15499097442412
S-NET C                 
1 43189U 18014K   26060.30214144  .00006749  00000+0  35977-3 0  9991
2 43189  97.5481 326.0375 0011338  29.4988 330.6882 15.15457412440961
PAZ                     
1 43215U 18020A   26060.54409932  .00002697  00000+0  13158-3 0  9990
2 43215  97.4456  69.4614 0001678  88.2621 271.8805 15.19155143444661
GOES 17                 
1 43226U 18022A   26060.43284451 -.00000200  00000+0  00000+0 0  9996
2 43226   0.6603  87.6177 0002408 216.9710 280.9615  1.00270589 29341
LKW-4                   
1 43236U 18025A   26060.44286608  .00042604  00000+0  66316-3 0  9996
2 43236  97.6244 223.6268 0002801 334.5585  25.5529 15.53784206443252
ZHUHAI-1 OVS-02         
1 43440U 18040B   26060.50618767  .00007088  00000+0  29911-3 0  9999
2 43440  97.0500  84.1731 0001755 288.5777  71.5270 15.23562953436314
ZHUHAI-1 OHS-02         
1 43441U 18040C   26060.54665586  .00008132  00000+0  33542-3 0  9991
2 43441  97.0508  91.0416 0007924 248.1101 111.9295 15.24269934 97871
GAOFEN-6                
1 43484U 18048A   26060.52875745  .00000740  00000+0  11297-3 0  9994
2 43484  97.7897 127.0977 0012566 159.5078 200.6639 14.76578165417503
LUOJIA-1 01             
1 43485U 18048B   26060.51424286  .00005618  00000+0  63516-3 0  9994
2 43485  97.8177 140.4429 0010489 113.0317 247.2006 14.86828836418218
PAKTES 1A               
1 43529U 18056A   26060.52018162  .00001866  00000+0  16069-3 0  9997
2 43529  98.1117 212.5625 0022595 105.9117 254.4597 14.98487971415792
PRSS-1                  
1 43530U 18056B   26060.49179407  .00001717  00000+0  22397-3 0  9991
2 43530  97.7940 131.3077 0001513  79.3377 280.8006 14.81793186412482
HAIYANG-1C              
1 43609U 18068A   26060.52447071  .00000469  00000+0  18313-3 0  9996
2 43609  98.5298 134.3506 0011831  57.6154 302.6175 14.34142601391653
SSTL S1-4               
1 43618U 18071A   26060.54760366  .00001588  00000+0  14555-3 0  9994
2 43618  97.5212 296.5324 0002124 108.5186 251.6266 14.96249467406841
HAIYANG-2B              
1 43655U 18081A   26060.51552369 -.00000074  00000+0 -28843-4 0  9992
2 43655  99.3336  70.8789 0000936 154.4647 205.6551 13.79306287370084
CZ-4B R/B               
1 43656U 18081B   26060.36174007  .00000173  00000+0  68979-4 0  9997
2 43656  99.3723 329.6874 0204189 217.1561 141.5340 14.31818980383875
CFOSAT                  
1 43662U 18083A   26060.53451627  .00004876  00000+0  25350-3 0  9990
2 43662  97.3632  68.2211 0001565 157.0466 203.0838 15.16515222406126
TEN-KOH                 
1 43677U 18084G   26060.51672348  .00003677  00000+0  28227-3 0  9994
2 43677  98.0789 248.3611 0011250 116.9308 243.3066 15.02399445399997
DIWATA-2B               
1 43678U 18084H   26060.51682542  .00001193  00000+0  10134-3 0  9991
2 43678  98.1038 252.2177 0010978 152.5808 207.5996 14.99907438400072
STARS-AO                
1 43679U 18084J   26060.51595140  .00009121  00000+0  48311-3 0  9996
2 43679  98.0623 267.8704 0002511 148.3930 211.7452 15.15661113401153
AUTCUBE 2               
1 43681U 18084K   26060.52571936  .00004855  00000+0  30936-3 0  9990
2 43681  98.0795 260.9866 0010086  52.5105 307.7038 15.09221206400686
METOP-C                 
1 43689U 18087A   26060.44515377  .00000140  00000+0  83715-4 0  9996
2 43689  98.6784 121.9574 0002141 111.3696 248.7710 14.21493842379521
ES'HAIL 2               
1 43700U 18090A   26060.30960560  .00000126  00000+0  00000+0 0  9992
2 43700   0.0143 111.6653 0002672 262.8086 281.8657  1.00273334 26598
MOHAMMED VI-B           
1 43717U 18095A   26060.46726995  .00000696  00000+0  10574-3 0  9997
2 43717  97.9441 134.3368 0001200  85.3366 274.7981 14.77110433392283
HYSIS                   
1 43719U 18096A   26060.48042799  .00001707  00000+0  24018-3 0  9997
2 43719  97.9966 128.0183 0001678 102.3398 257.8001 14.78633698391509
COSMOS 2530 (RODNIK-S *)
1 43751U 18097A   26060.50994082  .00000195  00000+0  13344-2 0  9997
2 43751  82.5134 289.1320 0018848 271.7544  88.1377 12.42878170328916
COSMOS 2531 (RODNIK-S *)
1 43752U 18097B   26060.53494024  .00000153  00000+0  10339-2 0  9997
2 43752  82.5182 290.1387 0016132 291.7092  68.2270 12.42909138328931
COSMOS 2532 (RODNIK-S *)
1 43753U 18097C   26060.56292639  .00000126  00000+0  83779-3 0  9998
2 43753  82.5124 288.9561 0017526 293.6965  66.2276 12.42905402328906
MINXSS-2                
1 43758U 18099A   26060.13939603  .00034009  00000+0  86098-3 0  9991
2 43758  97.4656 133.7991 0007409 293.6027  66.4440 15.39647500397461
SIRION PATHFINDER-2     
1 43759U 18099B   26060.38724075  .00006099  00000+0  34483-3 0  9993
2 43759  97.4415 112.0097 0007723 320.9885  39.0789 15.13417602396312
AISTECHSAT 2            
1 43768U 18099L   26059.95797325  .00007147  00000+0  39488-3 0  9997
2 43768  97.4457 110.3706 0003698 329.5073  30.5944 15.14198181395897
