OBJECT_NAME,OBJECT_ID,EPOCH,MEAN_MOTION,ECCENTRICITY,INCLINATION,RA_OF_ASC_NODE,ARG_OF_PERICENTER,MEAN_ANOMALY,EPHEMERIS_TYPE,CLASSIFICATION_TYPE,NORAD_CAT_ID,ELEMENT_SET_NO,REV_AT_EPOCH,BSTAR,MEAN_MOTION_DOT,MEAN_MOTION_DDOT
S-NET B,2018-014H,2026-03-01T07:10:19.452864,15.15464884,.0010189,97.5455,325.7871,36.5929,323.5997,0,U,43187,999,44241,.36883E-3,.692E-4,0
S-NET A,2018-014J,2026-03-01T06:55:53.745600,15.15499097,.0010122,97.5464,325.9664,36.8876,323.3051,0,U,43188,999,44241,.40317E-3,.7579E-4,0
S-NET C,2018-014K,2026-03-01T07:15:05.020416,15.15457412,.0011338,97.5481,326.0375,29.4988,330.6882,0,U,43189,999,44096,.35977E-3,.6749E-4,0
PAZ,2018-020A,2026-03-01T13:03:30.181248,15.19155143,.0001678,97.4456,69.4614,88.2621,271.8805,0,U,43215,999,44466,.13158E-3,.2697E-4,0
GOES 17,2018-022A,2026-03-01T10:23:17.765664,1.00270589,.0002408,0.6603,87.6177,216.9710,280.9615,0,U,43226,999,2934,0,-.2E-5,0
LKW-4,2018-025A,2026-03-01T10:37:43.629312,15.53784206,.0002801,97.6244,223.6268,334.5585,25.5529,0,U,43236,999,44325,.66316E-3,.42604E-3,0
ZHUHAI-1 OVS-02,2018-040B,2026-03-01T12:08:54.614688,15.23562953,.0001755,97.0500,84.1731,288.5777,71.5270,0,U,43440,999,43631,.29911E-3,.7088E-4,0
ZHUHAI-1 OHS-02,2018-040C,2026-03-01T13:07:11.066304,15.24269934,.0007924,97.0508,91.0416,248.1101,111.9295,0,U,43441,999,9787,.33542E-3,.8132E-4,0
GAOFEN-6,2018-048A,2026-03-01T12:41:24.643680,14.76578165,.0012566,97.7897,127.0977,159.5078,200.6639,0,U,43484,999,41750,.11297E-3,.74E-5,0
LUOJIA-1 01,2018-048B,2026-03-01T12:20:30.583104,14.86828836,.0010489,97.8177,140.4429,113.0317,247.2006,0,U,43485,999,41821,.63516E-3,.5618E-4,0
PAKTES 1A,2018-056A,2026-03-01T12:29:03.691968,14.98487971,.0022595,98.1117,212.5625,105.9117,254.4597,0,U,43529,999,41579,.16069E-3,.1866E-4,0
PRSS-1,2018-056B,2026-03-01T11:48:11.007648,14.81793186,.0001513,97.7940,131.3077,79.3377,280.8006,0,U,43530,999,41248,.22397E-3,.1717E-4,0
HAIYANG-1C,2018-068A,2026-03-01T12:35:14.269344,14.34142601,.0011831,98.5298,134.3506,57.6154,302.6175,0,U,43609,999,39165,.18313E-3,.469E-5,0
SSTL S1-4,2018-071A,2026-03-01T13:08:32.956224,14.96249467,.0002124,97.5212,296.5324,108.5186,251.6266,0,U,43618,999,40684,.14555E-3,.1588E-4,0
HAIYANG-2B,2018-081A,2026-03-01T12:22:21.246816,13.79306287,.0000936,99.3336,70.8789,154.4647,205.6551,0,U,43655,999,37008,-.28843E-4,-.74E-6,0
CZ-4B R/B,2018-081B,2026-03-01T08:40:54.342048,14.31818980,.0204189,99.3723,329.6874,217.1561,141.5340,0,U,43656,999,38387,.68979E-4,.173E-5,0
CFOSAT,2018-083A,2026-03-01T12:49:42.205728,15.16515222,.0001565,97.3632,68.2211,157.0466,203.0838,0,U,43662,999,40612,.2535E-3,.4876E-4,0
TEN-KOH,2018-084G,2026-03-01T12:24:04.908672,15.02399445,.001125,98.0789,248.3611,116.9308,243.3066,0,U,43677,999,39999,.28227E-3,.3677E-4,0
DIWATA-2B,2018-084H,2026-03-01T12:24:13.716288,14.99907438,.0010978,98.1038,252.2177,152.5808,207.5996,0,U,43678,999,40007,.10134E-3,.1193E-4,0
STARS-AO,2018-084J,2026-03-01T12:22:58.200960,15.15661113,.0002511,98.0623,267.8704,148.3930,211.7452,0,U,43679,999,40115,.48311E-3,.9121E-4,0
AUTCUBE 2,2018-084K,2026-03-01T12:37:02.152704,15.09221206,.0010086,98.0795,260.9866,52.5105,307.7038,0,U,43681,999,40068,.30936E-3,.4855E-4,0
METOP-C,2018-087A,2026-03-01T10:41:01.285728,14.21493842,.0002141,98.6784,121.9574,111.3696,248.7710,0,U,43689,999,37952,.83715E-4,.14E-5,0
ES'HAIL 2,2018-090A,2026-03-01T07:25:49.923840,1.00273334,.0002672,0.0143,111.6653,262.8086,281.8657,0,U,43700,999,2659,0,.126E-5,0
MOHAMMED VI-B,2018-095A,2026-03-01T11:12:52.123680,14.77110433,.00012,97.9441,134.3368,85.3366,274.7981,0,U,43717,999,39228,.10574E-3,.696E-5,0
HYSIS,2018-096A,2026-03-01T11:31:48.978336,14.78633698,.0001678,97.9966,128.0183,102.3398,257.8001,0,U,43719,999,39150,.24018E-3,.1707E-4,0
COSMOS 2530 (RODNIK-S 16),2018-097A,2026-03-01T12:14:18.886848,12.42878170,.0018848,82.5134,289.1320,271.7544,88.1377,0,U,43751,999,32891,.13344E-2,.195E-5,0
COSMOS 2531 (RODNIK-S 17),2018-097B,2026-03-01T12:50:18.836736,12.42909138,.0016132,82.5182,290.1387,291.7092,68.2270,0,U,43752,999,32893,.10339E-2,.153E-5,0
COSMOS 2532 (RODNIK-S 18),2018-097C,2026-03-01T13:30:36.840096,12.42905402,.0017526,82.5124,288.9561,293.6965,66.2276,0,U,43753,999,32890,.83779E-3,.126E-5,0
MINXSS-2,2018-099A,2026-03-01T03:20:43.816992,15.39647500,.0007409,97.4656,133.7991,293.6027,66.4440,0,U,43758,999,39746,.86098253E-3,.34009E-3,0
SIRION PATHFINDER-2,2018-099B,2026-03-01T09:17:37.600800,15.13417602,.0007723,97.4415,112.0097,320.9885,39.0789,0,U,43759,999,39631,.34483E-3,.6099E-4,0
AISTECHSAT 2,2018-099L,2026-02-28T22:59:28.888800,15.14198181,.0003698,97.4457,110.3706,329.5073,30.5944,0,U,43768,999,39589,.39488E-3,.7147E-4,0
